{"type": "FeatureCollection", "features": [{"type": "Feature", "geometry": {"type": "Polygon", "coordinates": [[[85.33877621188194, 28.164343626402623], [85.33877732691256, 28.16427144022745], [85.33869587251517, 28.16427045204731], [85.3386969875963, 28.164198265874315], [85.3385340789231, 28.164196289374782], [85.33853519410933, 28.164124103206937], [85.33845373983353, 28.164123114887538], [85.33845485507024, 28.164050928721874], [85.33837340085316, 28.16404994035705], [85.33837451614036, 28.163977754193557], [85.33845597030282, 28.163978742555404], [85.33845708553129, 28.16390655638813], [85.33853853964325, 28.163907544698592], [85.33853965481299, 28.16383535852754], [85.33862110887448, 28.163836346786617], [85.33862222398547, 28.163764160611787], [85.33870367799646, 28.163765148819486], [85.33870144787956, 28.1639095211743], [85.33886435613233, 28.16391149745638], [85.33886324117691, 28.163983683638545], [85.33894469536409, 28.163984671709954], [85.33894358045917, 28.164056857894288], [85.33910648895512, 28.164058833897844], [85.33910425935136, 28.164203206276024], [85.33918571371473, 28.164204194211145], [85.33918459896128, 28.164276380402008], [85.3393475078096, 28.164278356132986], [85.33934639316126, 28.164350542329004], [85.33877621188194, 28.164343626402623]]]}, "properties": {"reach": "B", "layer": "deposition", "source": "stereo DSM minus pre-event DEM, floor-masked"}}, {"type": "Feature", "geometry": {"type": "Polygon", "coordinates": [[[85.32986369139132, 28.155932265268135], [85.32986481200744, 28.155860079332175], [85.32978336434753, 28.15585908612324], [85.3297844850141, 28.15578690018947], [85.32970303741291, 28.15578590693514], [85.32970527884282, 28.155641535071176], [85.32962383135494, 28.155640541774446], [85.32962495211827, 28.155568355844252], [85.3294620572641, 28.155566369111614], [85.32946317813246, 28.15549418318661], [85.32938173076619, 28.1554931897507], [85.32938285168498, 28.15542100382789], [85.32930140437743, 28.15542001034659], [85.32930252534668, 28.155347824425974], [85.32922107809786, 28.15534683089927], [85.32922219911754, 28.155274644980853], [85.32914075192744, 28.155273651408766], [85.32914299406355, 28.1551292795755], [85.32906154698678, 28.15512828596101], [85.3290637892155, 28.15498391413053], [85.32881944833753, 28.15498093301471], [85.32882281214077, 28.154764375289933], [85.3287413653535, 28.15476338149687], [85.32874248666754, 28.15469119559], [85.32866103993896, 28.15469020175155], [85.32866216130346, 28.154618015846875], [85.32858071463363, 28.154617021963034], [85.32858295745933, 28.154472650157267], [85.32850151090283, 28.154471656231028], [85.32850263236404, 28.154399470329945], [85.32842118586626, 28.15439847635832], [85.32842230737792, 28.154326290459426], [85.32825941450395, 28.154324302377002], [85.32826053612062, 28.154252116483303], [85.32817908974442, 28.15425112237251], [85.32818021141155, 28.154178936480996], [85.32809876509408, 28.154177942324818], [85.32809988681163, 28.15410575643551], [85.32793699429831, 28.15410376798398], [85.32793811612088, 28.154031582099858], [85.32785666992503, 28.154030587804513], [85.32785891366689, 28.153886216039858], [85.3279403597536, 28.1538872103292], [85.32794148156373, 28.153815024442682], [85.32802292759999, 28.153816018680647], [85.32802180584443, 28.15388820457017], [85.32810325193942, 28.15388919876275], [85.3281021302343, 28.15396138465447], [85.32826502254588, 28.15396337290046], [85.32826277934154, 28.154107744693487], [85.32850711816748, 28.15411072671757], [85.32850599672284, 28.154182912621863], [85.32858744306102, 28.15418390653612], [85.32858407886597, 28.154400464253182], [85.32866552537205, 28.15440145812804], [85.32866440402, 28.15447364403512], [85.32882729715375, 28.154475631645663], [85.32882617590673, 28.154547817557937], [85.3289076225344, 28.15454881129362], [85.32890425893218, 28.154765369034603], [85.32898570572776, 28.15476636273089], [85.32898458457333, 28.15483854864594], [85.32906603142763, 28.154839542296838], [85.32906491032362, 28.154911728214085], [85.32914635723665, 28.154912721819585], [85.3291452361831, 28.154984907739028], [85.32922668315486, 28.15498590129914], [85.32922444114448, 28.155130273141598], [85.32938733531874, 28.15513226012864], [85.32938621441652, 28.15520444605465], [85.32946766156446, 28.155205439478586], [85.32946654071267, 28.155277625406793], [85.32954798791933, 28.15527861878534], [85.3295457463125, 28.155422990645334], [85.3297086409566, 28.155424977269224], [85.32970752025615, 28.155497163204014], [85.32987041502598, 28.15549914964033], [85.32986929443055, 28.155571335580312], [85.32995074187627, 28.15557232872888], [85.32994738022892, 28.15578888655297], [85.33011027546029, 28.15579087272291], [85.33010915501207, 28.15586305866865], [85.33019060268855, 28.15586405168403], [85.33018948229076, 28.155936237631966], [85.32986369139132, 28.155932265268135]]]}, "properties": {"reach": "B", "layer": "deposition", "source": "stereo DSM minus pre-event DEM, floor-masked"}}, {"type": "Feature", "geometry": {"type": "Polygon", "coordinates": [[[85.31931134157364, 28.14829444175207], [85.31931246890721, 28.148222256126083], [85.31890526174963, 28.148217259469757], [85.31890638935188, 28.148145073858036], [85.31866206527103, 28.1481420752928], [85.3186609375051, 28.148214260895482], [85.31857949609858, 28.14821326127398], [85.31858062391909, 28.148141075674314], [85.3184991825713, 28.14814007600745], [85.31850031044219, 28.14806789040998], [85.31841886915315, 28.148066890697766], [85.31841999707443, 28.147994705102516], [85.318175673396, 28.14799170568467], [85.31817341722189, 28.148136076856282], [85.31801053457218, 28.148134076990463], [85.31801279096456, 28.147989705830902], [85.3179313497551, 28.14798870583147], [85.31793247799959, 28.147916520253496], [85.3177695957023, 28.14791452011553], [85.31777410907512, 28.14762577781977], [85.31801843187256, 28.147628777917983], [85.3180173036993, 28.14770096350217], [85.31818018569423, 28.14770296333182], [85.31817905762593, 28.147775148921223], [85.31850482188408, 28.147779148012113], [85.31850369402986, 28.147851333612785], [85.31858513515938, 28.147852333267597], [85.31858400735557, 28.147924518870475], [85.31923553697828, 28.147932514391638], [85.3192344096068, 28.148004700017825], [85.31931585088297, 28.14800569924331], [85.31931472356189, 28.1480778848717], [85.31947760623582, 28.14807988318357], [85.31947535179943, 28.148224254450003], [85.31955679325178, 28.148225253539405], [85.31955566608188, 28.14829743917443], [85.31931134157364, 28.14829444175207]]]}, "properties": {"reach": "B", "layer": "deposition", "source": "stereo DSM minus pre-event DEM, floor-masked"}}, {"type": "Feature", "geometry": {"type": "Polygon", "coordinates": [[[85.31761348411065, 28.147479406371797], [85.31761574097361, 28.147335035227947], [85.31753430027605, 28.147334035013788], [85.31753542875583, 28.14726184944368], [85.31745398811701, 28.147260849184164], [85.31745511664718, 28.147188663616266], [85.3173736760671, 28.147187663311396], [85.31737480464767, 28.14711547774571], [85.31729336412631, 28.14711447739548], [85.31729449275728, 28.14704229183201], [85.31721305229465, 28.14704129143643], [85.31721418097601, 28.14696910587518], [85.31713274057212, 28.146968105434244], [85.31713386930385, 28.146895919875192], [85.31705242895869, 28.1468949193889], [85.3170535577408, 28.146822733832074], [85.3169721174544, 28.14682173330044], [85.3169732462869, 28.14674954774582], [85.31689180605922, 28.146748547168826], [85.31689293494212, 28.14667636161642], [85.31681149477316, 28.146675360994074], [85.31681375263557, 28.146530989892895], [85.3169766327594, 28.146532991077155], [85.3169755039394, 28.146605176634175], [85.31705694406214, 28.14660617715677], [85.31705581529255, 28.146678362716006], [85.31713725547401, 28.146679363193243], [85.31713612675479, 28.146751548754697], [85.317217566995, 28.146752549186584], [85.31721643832617, 28.14682473475025], [85.31737931892822, 28.146826735474942], [85.31737819036434, 28.14689892104384], [85.31745963072618, 28.14689992133664], [85.31745850221269, 28.146972106907757], [85.31753994263326, 28.146973107155212], [85.31753881417015, 28.147045292728528], [85.31770169513293, 28.147047293084352], [85.31770056677477, 28.14711947866291], [85.31761912623675, 28.14711847850616], [85.31761686939882, 28.147262849654826], [85.31777975069731, 28.147264849932004], [85.3177763657365, 28.147481406667065], [85.31761348411065, 28.147479406371797]]]}, "properties": {"reach": "B", "layer": "deposition", "source": "stereo DSM minus pre-event DEM, floor-masked"}}, {"type": "Feature", "geometry": {"type": "Polygon", "coordinates": [[[85.31567924063818, 28.146156048630004], [85.31568037030607, 28.14608386311646], [85.31551749097049, 28.146081860420615], [85.31551862074333, 28.146009674912293], [85.31511142275028, 28.146004667341344], [85.31511255279172, 28.145932481847318], [85.31486823420967, 28.1459294767334], [85.31486936441061, 28.14585729124763], [85.31470648548593, 28.14585528760255], [85.3147076157918, 28.14578310212202], [85.31438185821078, 28.14577909426353], [85.31438298873071, 28.145706908794278], [85.31389435281187, 28.145700895573654], [85.31389548365497, 28.14562871012173], [85.31381404440434, 28.145627707752034], [85.31381517529782, 28.145555522302335], [85.31365229691822, 28.145553517423874], [85.31365342791663, 28.14548133197941], [85.31349054966287, 28.145479326913527], [85.31349168076622, 28.145407141474312], [85.3133288026383, 28.145405136221004], [85.31332993384657, 28.14533295078704], [85.31308561684969, 28.145329942553406], [85.31308787958103, 28.145185571701187], [85.31300644069957, 28.145184568865957], [85.31300870352328, 28.145040198016588], [85.3129272647551, 28.145039195139034], [85.31292952767122, 28.14489482429249], [85.31284808901631, 28.144893821372627], [85.31284922052265, 28.144821635951175], [85.3127677819265, 28.144820632985965], [85.3127689134832, 28.144748447566734], [85.31285035202481, 28.14474945052892], [85.31285148352278, 28.144677265105862], [85.31293292201401, 28.14467826801666], [85.31293631631918, 28.144461711733598], [85.31301775465093, 28.144462714586957], [85.31301549189412, 28.144607085449184], [85.31309693033916, 28.144608088260224], [85.31309240499355, 28.14489682998713], [85.31317384366099, 28.1448978327619], [85.31317271236868, 28.144970018194634], [85.31325415109487, 28.14497102092407], [85.31325301985295, 28.145043206359034], [85.31333445863785, 28.145044209043117], [85.3133333274463, 28.1451163944803], [85.31341476628995, 28.145117397119048], [85.31341363514878, 28.14518958255845], [85.31357651295774, 28.145191587696882], [85.3135753819215, 28.14526377314153], [85.31365682088679, 28.145264775641223], [85.31365568990093, 28.145336961088088], [85.31390000698558, 28.145339968306022], [85.3138988761592, 28.145412153761153], [85.31414319344513, 28.145415160552854], [85.31414093210716, 28.145559531478845], [85.31422237131996, 28.145560533652056], [85.31422124069925, 28.145632719116865], [85.31454699781041, 28.14563672733813], [85.31454586740377, 28.145708912814218], [85.31487162479999, 28.145712920273684], [85.31487049460739, 28.14578510576106], [85.31503337343969, 28.14578710920663], [85.31503450352317, 28.145714923713214], [85.31527882163925, 28.145717928509747], [85.31527769171944, 28.145790114012232], [85.3155220100368, 28.14579311838252], [85.3155208802765, 28.145865303893242], [85.31560231977852, 28.145866305256295], [85.31560344948426, 28.14579411974255], [85.31576632839172, 28.145796122317503], [85.31576406919427, 28.145940493356267], [85.31584550876337, 28.14594149457723], [85.31584437921296, 28.146013680098427], [85.3159258188408, 28.146014681274035], [85.31592468934073, 28.14608686679746], [85.31600612902733, 28.14608786792772], [85.31600499957766, 28.14616005345335], [85.31567924063818, 28.146156048630004]], [[85.312930659123, 28.144822638868018], [85.31301209772752, 28.144823641736494], [85.31301322912056, 28.144751456308192], [85.31293179057059, 28.144750453442736], [85.312930659123, 28.144822638868018]]]}, "properties": {"reach": "B", "layer": "deposition", "source": "stereo DSM minus pre-event DEM, floor-masked"}}, {"type": "Feature", "geometry": {"type": "Polygon", "coordinates": [[[85.3099537025346, 28.142475568309806], [85.30995483586665, 28.142403382970816], [85.30971052594333, 28.142400369006552], [85.30971165943483, 28.142328183675854], [85.30954878628265, 28.142326174130602], [85.30954991987906, 28.142253988805155], [85.3094684833638, 28.14225298396302], [85.30946961701056, 28.142180798639803], [85.30930674410172, 28.14217878881651], [85.30930787785337, 28.14210660349855], [85.30914500507038, 28.142104593487883], [85.30914613892695, 28.14203240817518], [85.30906470259629, 28.142031403100336], [85.30906583650321, 28.14195921778986], [85.30898440023128, 28.141958212669685], [85.30898326626982, 28.14203039797713], [85.30890182994753, 28.14202939280557], [85.30890409797537, 28.141885022195932], [85.30874122556156, 28.14188301171986], [85.30874235967829, 28.141810826419903], [85.30882379582856, 28.14181183167909], [85.30882492988655, 28.141739646375303], [85.30866205769931, 28.14173763581463], [85.3086631918622, 28.14166545051609], [85.30858175582941, 28.14166444516625], [85.30858402425169, 28.141520074572842], [85.30850258833219, 28.141519069180706], [85.30850145406859, 28.14159125447478], [85.30842001809874, 28.141590249031253], [85.30842115241688, 28.141518063740207], [85.30833971650576, 28.141517058251353], [85.30834085087425, 28.14144487296254], [85.30842228673082, 28.141445878448362], [85.30842342104057, 28.14137369315571], [85.30858629265722, 28.141375703976223], [85.30858515845655, 28.141447889274932], [85.30882946607659, 28.141450905152105], [85.30882833203536, 28.141523090459103], [85.30890976797163, 28.141524095657815], [85.30890863398078, 28.141596280967043], [85.30899006997578, 28.141597286120426], [85.30898893603526, 28.141669471431875], [85.30915180814695, 28.14167148159962], [85.30915067431133, 28.141743666916337], [85.309232110428, 28.141744671930702], [85.30923097664274, 28.141816857249644], [85.30947528518153, 28.141819872011666], [85.30947301792573, 28.141964242665328], [85.30963589052405, 28.141966252277005], [85.30963475699895, 28.142038437608687], [85.3102048116069, 28.142045469747433], [85.31020367845943, 28.14211765509952], [85.31036655135135, 28.142119663852842], [85.31036768438973, 28.142047478494696], [85.31053055718931, 28.14204948704852], [85.3105316901144, 28.141977301683518], [85.31077599918153, 28.141980314142472], [85.3107771319388, 28.141908128767586], [85.31085856824834, 28.14190913282082], [85.31085630283872, 28.142053503575852], [85.31077486642009, 28.14205249951656], [85.31077373365444, 28.14212468488984], [85.31069229718544, 28.142123680779154], [85.31069116436107, 28.14219586614861], [85.31052829132656, 28.142193857776117], [85.3105271583889, 28.142266043138708], [85.31036428526204, 28.14226403456672], [85.3103631522111, 28.142336219922452], [85.31028171559942, 28.142335215560887], [85.31028058248974, 28.142407400912795], [85.31011770916982, 28.142405392038523], [85.31011657594686, 28.142477577383573], [85.3099537025346, 28.142475568309806]], [[85.30946961701056, 28.142180798639803], [85.30955105347127, 28.14218180347891], [85.30955332064315, 28.142037432824004], [85.30947188429153, 28.14203642799096], [85.30946961701056, 28.142180798639803]]]}, "properties": {"reach": "B", "layer": "deposition", "source": "stereo DSM minus pre-event DEM, floor-masked"}}]}