{"type": "FeatureCollection", "features": [{"type": "Feature", "geometry": {"type": "Polygon", "coordinates": [[[85.3809059890879, 28.281180457717873], [85.3809070811734, 28.281108271249796], [85.38074399147072, 28.28110633764852], [85.38074508366209, 28.281034151185462], [85.38066353887172, 28.281033184314758], [85.380664631114, 28.280960997853796], [85.38058308638261, 28.28096003093736], [85.38058417867582, 28.280887844478503], [85.38042108933502, 28.280885910505496], [85.38042436652007, 28.280669351141544], [85.38034282202057, 28.280668384090795], [85.38034500690033, 28.280524011183296], [85.38026346251472, 28.280523044089712], [85.38026564748824, 28.280378671184824], [85.38059182461532, 28.28038253924405], [85.38059073235034, 28.28045472570852], [85.3808353654028, 28.28045762625088], [85.38083318119041, 28.28060199919485], [85.38091472565917, 28.280602965950823], [85.38091363360186, 28.280675152424507], [85.38099517812961, 28.28067611913474], [85.38099190209834, 28.280892678559713], [85.38107344679493, 28.280893645230012], [85.38107126286383, 28.281038018181796], [85.38115280767434, 28.281038984809257], [85.3811517157577, 28.281111171286852], [85.38098862603081, 28.281109237977457], [85.38098753400024, 28.28118142444844], [85.3809059890879, 28.281180457717873]]]}, "properties": {"reach": "A", "layer": "erosion", "source": "stereo DSM minus pre-event DEM, floor-masked"}}, {"type": "Feature", "geometry": {"type": "Polygon", "coordinates": [[[85.37623991018314, 28.276937497423994], [85.37624319528447, 28.276720938384088], [85.37632473661158, 28.27672190775844], [85.37632583158235, 28.276649721407292], [85.37640737285855, 28.276650690730083], [85.37641175248147, 28.276361945305805], [85.37649329354201, 28.27636291456831], [85.37649548321937, 28.276218541845523], [85.37657702417407, 28.276219511053565], [85.37657811895177, 28.276147324688058], [85.37674120076343, 28.27614926295241], [85.37674339008699, 28.276004890207336], [85.37682493088903, 28.276005859260728], [85.37682821467925, 28.275789300128363], [85.37674667404201, 28.275788331083714], [85.37674886332516, 28.275643958330615], [85.37683040385255, 28.275644927369445], [85.37682930926792, 28.27571711374931], [85.37691084985428, 28.275718082742415], [85.37690318803328, 28.27622338739937], [85.37682164706243, 28.276222418385878], [85.3768194578245, 28.27636679113196], [85.37673791674781, 28.276365822064], [85.37673572738387, 28.276510194801048], [85.37665418620136, 28.276509225678634], [85.37664871244614, 28.276870157492656], [85.37648562954395, 28.276868219072774], [85.37648453467092, 28.27694040542734], [85.37623991018314, 28.276937497423994]]]}, "properties": {"reach": "A", "layer": "erosion", "source": "stereo DSM minus pre-event DEM, floor-masked"}}, {"type": "Feature", "geometry": {"type": "Polygon", "coordinates": [[[85.37678498416415, 28.273261807441408], [85.37678717316453, 28.273117434632177], [85.37654255737363, 28.273114527529742], [85.37654474668737, 28.272970154734775], [85.37662628517046, 28.272971123811725], [85.37662737976633, 28.272898937410126], [85.37670891819853, 28.272899906435526], [85.37671001273546, 28.272827720030214], [85.37679155111678, 28.272828689004083], [85.37679592900443, 28.272539943363153], [85.37671439084278, 28.272538974400938], [85.3767165798722, 28.272394601581492], [85.37663504182444, 28.272393632576474], [85.37663613638802, 28.27232144616846], [85.37655459839921, 28.272320477117727], [85.37655569301366, 28.272248290711822], [85.3764741550838, 28.272247321615374], [85.37647634441042, 28.27210294880699], [85.37655788223043, 28.272103917897613], [85.37655678762407, 28.27217610430512], [85.37671986338604, 28.2721780423463], [85.37671767438086, 28.272322415170567], [85.37679921237775, 28.272323384124036], [85.37679811792401, 28.27239557053788], [85.37687965597985, 28.272396539445634], [85.37688075037867, 28.27232435302888], [85.37696228838364, 28.272325321885095], [85.3769600996918, 28.272469694723632], [85.37704163781065, 28.27247066353704], [85.37704273210366, 28.27239847711526], [85.37720580824362, 28.272400414590376], [85.37720471406044, 28.272472601017974], [85.37712317593352, 28.272471632301823], [85.377119893195, 28.272688191571078], [85.37703835490736, 28.272687222797558], [85.37703288332112, 28.273048154882375], [85.37695134476293, 28.27304718604566], [85.37694806159796, 28.2732637452782], [85.37678498416415, 28.273261807441408]]]}, "properties": {"reach": "A", "layer": "erosion", "source": "stereo DSM minus pre-event DEM, floor-masked"}}, {"type": "Feature", "geometry": {"type": "Polygon", "coordinates": [[[85.3769343775014, 28.279544928980417], [85.37693766155589, 28.279328369948487], [85.37685611821883, 28.27932740085839], [85.37685830767816, 28.279183028172255], [85.37693985090534, 28.279183997256535], [85.37694094557402, 28.279111810909345], [85.3770224887503, 28.27911277994206], [85.37702686716482, 28.278824034533653], [85.3771084101254, 28.27882500350608], [85.37710950466399, 28.27875281714906], [85.37702796175836, 28.278751848179542], [85.37703234009209, 28.27846310275509], [85.37695079741023, 28.278462133748583], [85.37695298666273, 28.27831776103737], [85.37687144409479, 28.278316791988043], [85.37687253876992, 28.278244605634153], [85.37679099626094, 28.278243636539102], [85.37679318570893, 28.278099263834726], [85.37671164331388, 28.278098294696857], [85.37672040138376, 28.277520803870573], [85.37663885943222, 28.27751983470737], [85.37664104901914, 28.277375461998606], [85.37655950718151, 28.27737449279259], [85.3765627916964, 28.277157933732166], [85.37664433336924, 28.27715890292944], [85.37664542814453, 28.27708671657145], [85.37672696976648, 28.27708768571717], [85.3767280644828, 28.27701549935546], [85.37680960605385, 28.27701646844963], [85.3768107007112, 28.27694428208422], [85.37689224223136, 28.276945251126833], [85.37689662060062, 28.27665650564547], [85.3769781619051, 28.276657474627807], [85.37698253998998, 28.27636872912196], [85.37706408107879, 28.276369698044007], [85.37706955331936, 28.276008766129088], [85.37698801250521, 28.276007797221606], [85.37698910699613, 28.275935610839127], [85.37707064775536, 28.275936579743703], [85.37707611987477, 28.27557564780472], [85.37699457939019, 28.27557467891471], [85.37700224057221, 28.27506937418684], [85.3770837806723, 28.275070343056466], [85.37709034691265, 28.27463722466954], [85.3769272673756, 28.27463528691661], [85.37692836184472, 28.274563100521807], [85.37684682213718, 28.2745621315753], [85.37685010568504, 28.274345572394818], [85.37693164522781, 28.274346541332584], [85.37693273968077, 28.27427435493457], [85.37701427917263, 28.274275323820792], [85.37701537356662, 28.274203137419065], [85.37709691300762, 28.27420410625374], [85.37710238464236, 28.27384317421852], [85.37718392381277, 28.273844142990004], [85.37718830082817, 28.27355539733574], [85.37726983978294, 28.273556366046943], [85.37727421651404, 28.273267620368205], [85.37735575525315, 28.273268589019125], [85.3773590375943, 28.273052029742914], [85.37719596044964, 28.273050092409903], [85.37719924308398, 28.27283353314394], [85.37728078148953, 28.272834501826026], [85.37728187563798, 28.272762315399525], [85.37744495235137, 28.27276425261198], [85.37744385831276, 28.272836439044305], [85.37760693515213, 28.272838376068066], [85.37760802908089, 28.272766189629916], [85.37752649071412, 28.272765221145264], [85.37752758469375, 28.272693034709228], [85.37744604638593, 28.272692066178855], [85.37745151649823, 28.272331134001185], [85.37736997846903, 28.272330165436742], [85.37737654280005, 28.271897046814544], [85.37745808049974, 28.27189801536152], [85.37747339593798, 28.270887405090022], [85.37739185900712, 28.27088643658381], [85.37740061077012, 28.270308944952816], [85.37731907428262, 28.27030797642127], [85.37732235629187, 28.270091417055156], [85.37724081997312, 28.27009044848372], [85.37724191402305, 28.27001826202965], [85.37732345028687, 28.27001923059818], [85.37732454427784, 28.269947044140398], [85.37724300806893, 28.269946075574786], [85.37724519614858, 28.269801702662647], [85.37708212396251, 28.269799765397206], [85.37708321810611, 28.26972757894576], [85.37700168207404, 28.269726610243012], [85.37700387045892, 28.269582237343528], [85.37692233454071, 28.269581268597985], [85.37692342878202, 28.269509082149956], [85.37684189292276, 28.269508113358697], [85.37684298721494, 28.26943592691278], [85.37667991561837, 28.269433989190226], [85.37668101001631, 28.269361802749327], [85.37651793854572, 28.269359864838105], [85.37651903304946, 28.26928767840223], [85.37635596170483, 28.269285740302347], [85.37635924552126, 28.2690691810074], [85.37627771001975, 28.26906821189326], [85.37627880467204, 28.26899602546292], [85.37619726922946, 28.268995056303073], [85.37620055332685, 28.268778497015987], [85.37611901805306, 28.268777527816255], [85.37612339701265, 28.26848878210056], [85.37604186196252, 28.268487812863867], [85.37605062012699, 28.267910321417293], [85.37596908552017, 28.267909352155293], [85.3759712751307, 28.267764979291456], [85.37588974063772, 28.267764009986667], [85.37589083549182, 28.26769182355646], [85.37580930105779, 28.267690854205963], [85.37581149086368, 28.267546481348973], [85.37572995654351, 28.267545511955685], [85.37573543126207, 28.267184579813744], [85.37565389722045, 28.267183610386407], [85.37565827714216, 28.266894864670082], [85.37557674332422, 28.266893895205786], [85.37557783834943, 28.26682170877762], [85.37549630459043, 28.26682073926762], [85.37549849473855, 28.266676366414696], [85.37533542745226, 28.266674427260508], [85.37533652263006, 28.266602240838672], [85.37525498904789, 28.26660127119157], [85.37525608427656, 28.266529084771847], [85.37517455075331, 28.266528115079037], [85.37517564603286, 28.266455928661436], [85.37509411256856, 28.266454958922928], [85.37509520789894, 28.26638277250743], [85.37517674130835, 28.26638374224303], [85.3751778365798, 28.266311555823812], [85.37509630322529, 28.266310586091137], [85.3750973985476, 28.26623839967404], [85.37501586525205, 28.266237429895664], [85.37501696062522, 28.266165243480682], [85.37493542738862, 28.266164273656603], [85.37493652281265, 28.266092087243734], [85.37485498963498, 28.26609111737395], [85.37485608510985, 28.2660189309632], [85.37501915135941, 28.266020870648305], [85.37501805599435, 28.266093057064896], [85.37518112236987, 28.266094996561378], [85.37518002711055, 28.26616718298299], [85.37542462686886, 28.266170091871835], [85.37542353177021, 28.266242278301394], [85.37550506508596, 28.266243247836687], [85.37550397003815, 28.26631543426836], [85.37558550341286, 28.266316403757955], [85.37558440841593, 28.26638859019175], [85.37566594184958, 28.266389559635638], [85.37566484690349, 28.266461746071535], [85.3757463803961, 28.266462715469725], [85.37574419060161, 28.266607088344944], [85.37582572420804, 28.26660805770035], [85.37582462935964, 28.26668024413967], [85.37590616302502, 28.26668121344937], [85.3759039734259, 28.266825586331432], [85.37598550720514, 28.26682655559835], [85.37598441245443, 28.266898742041086], [85.3760659462926, 28.266899711262298], [85.37606485159274, 28.266971897707148], [85.37614638548985, 28.26697286688265], [85.37614310153077, 28.26718942622115], [85.37622463559663, 28.267190395356774], [85.3762191625252, 28.267551327586137], [85.37630069686963, 28.267552296687708], [85.37629741314302, 28.267768856024436], [85.3763789476562, 28.267769825086138], [85.3763745695171, 28.268058570868867], [85.37645610425395, 28.2680595398936], [85.37645282077193, 28.268276099230967], [85.37653435567753, 28.26827706821582], [85.37653107232389, 28.26849362755471], [85.37644953725356, 28.268492658561126], [85.3764473482211, 28.26863703144388], [85.37652888340126, 28.268638000443293], [85.37652778893388, 28.268710186886384], [85.37660932417297, 28.268711155840087], [85.37660604091133, 28.26892771517329], [85.37668757631918, 28.268928684087108], [85.37668648194547, 28.269000870532818], [85.37676801741229, 28.26900183940093], [85.37676692308943, 28.26907402584875], [85.3768484586152, 28.269074994671154], [85.37684736434322, 28.269147181121085], [85.37692889992792, 28.269148149897777], [85.37692780570681, 28.269220336349814], [85.37700934135047, 28.269221305080794], [85.37700824718024, 28.26929349153495], [85.37708978288283, 28.269294460220223], [85.37708868876348, 28.269366646676485], [85.37717022452503, 28.269367615316042], [85.377168036384, 28.269511988231983], [85.37733110813886, 28.269513925376884], [85.37733001417212, 28.269586111839477], [85.37749308605295, 28.26958804879571], [85.37749089832698, 28.26973242173013], [85.37757243438328, 28.269733390141138], [85.37757024675099, 28.269877763078174], [85.37765178292115, 28.269878731446376], [85.37765068915388, 28.269950917916606], [85.37773222538297, 28.269951886239088], [85.37773113166656, 28.270024072711422], [85.3778126679546, 28.2700250409882], [85.3778028248195, 28.270674719229337], [85.3778843616058, 28.27067568748368], [85.3778756123172, 28.27125317922233], [85.37779407509157, 28.271252210944695], [85.37779298135742, 28.271324397405504], [85.37787451863797, 28.27132536568605], [85.37787342495469, 28.271397552148976], [85.37779188761922, 28.271396583865517], [85.377790793877, 28.271468770324724], [85.37770925649066, 28.27146780198973], [85.37770706888426, 28.271612174899918], [85.37762553139213, 28.271611206510475], [85.37761459256872, 28.272333070984185], [85.37769613061003, 28.27233403940274], [85.37769503676041, 28.272406225848616], [85.37777657486068, 28.27240719422145], [85.37777438725914, 28.272551567116608], [85.37785592547328, 28.272552535446636], [85.37785920670476, 28.272335976093963], [85.37777766865538, 28.272335007772668], [85.37778641886771, 28.271757516153535], [85.37786795647774, 28.27175848445155], [85.37787014388063, 28.271614111532923], [85.37803321889315, 28.271616047971424], [85.3780343124787, 28.271543861505087], [85.3781158499361, 28.271544829648484], [85.37810163372302, 28.27248325368613], [85.3781831718984, 28.272484221818733], [85.37817114286636, 28.273278272853673], [85.37808960408688, 28.273277304689056], [85.37808522955265, 28.273566050484238], [85.37800369055752, 28.273565082259353], [85.3780004094497, 28.27378164158859], [85.37791887029384, 28.27378067330634], [85.37791558898492, 28.273997232619628], [85.37775251035575, 28.273995295891766], [85.37774485305805, 28.27450060088728], [85.37790793245615, 28.274502537655895], [85.37790683865018, 28.27457472408645], [85.37782529889418, 28.274573755723537], [85.37782092341024, 28.27486250142606], [85.37773938343858, 28.27486153300288], [85.37773500767034, 28.275150278680922], [85.377653467483, 28.27514931019746], [85.37765237347593, 28.27522149661206], [85.3775708332377, 28.275220528077046], [85.37756973917166, 28.27529271448793], [85.37748819888255, 28.27529174590138], [85.37748601062849, 28.275436118714914], [85.37740447023357, 28.275435150073903], [85.37740228185349, 28.275579522878402], [85.37748382235829, 28.27558049152524], [85.3774794457694, 28.275869237136263], [85.37731636432446, 28.27586729977067], [85.37731308151082, 28.276083858953044], [85.37723154062961, 28.27608289018856], [85.37722825761485, 28.27629944935498], [85.3771467165729, 28.276298480533125], [85.37714124452619, 28.276659412446563], [85.37705970321362, 28.2766584435615], [85.3770498527807, 28.277308120928947], [85.3769683109778, 28.277307151969037], [85.37696393268284, 28.277595897433176], [85.37704547470548, 28.27759686640473], [85.3770443801766, 28.27766905277167], [85.3771259222582, 28.277670021697503], [85.37712263881207, 28.27788658080225], [85.37720418106252, 28.27788754968818], [85.3772019921881, 28.27803192242649], [85.37728353455246, 28.278032891269604], [85.37728244016414, 28.27810507764047], [85.37736398258747, 28.27810604643785], [85.37736288825005, 28.278178232810816], [85.37744443073234, 28.278179201562473], [85.37744333644581, 28.278251387937562], [85.37760642153242, 28.278253325300767], [85.3776053273517, 28.278325511680872], [85.37776841256434, 28.278327448855336], [85.37776731848946, 28.27839963524046], [85.37784886115676, 28.278400603757643], [85.37784776713278, 28.278472790144875], [85.37792930985907, 28.278473758616332], [85.37792712190887, 28.278618131394214], [85.3777640362406, 28.278616194391027], [85.37776075395541, 28.278832753534378], [85.37767921096253, 28.278831784951084], [85.37767811680446, 28.27890397132769], [85.37759657376067, 28.278903002692843], [85.37759547954361, 28.278975189065733], [85.37751393644893, 28.278974220379336], [85.37751940776849, 28.278613288521434], [85.37735632214061, 28.278611351031827], [85.37735303903138, 28.278827910131508], [85.37727149605868, 28.278826941305006], [85.37726821274828, 28.27904350038873], [85.37718666961482, 28.279042531504846], [85.37718557511499, 28.27911471786157], [85.3772671183034, 28.279115686748366], [85.37726602385447, 28.279187873107198], [85.37718448061113, 28.279186904217497], [85.37718229159131, 28.279331276926932], [85.37710074824213, 28.279330307982764], [85.37709965367122, 28.279402494333365], [85.37701811027114, 28.279401525337637], [85.37701592100733, 28.279545898030616], [85.3769343775014, 28.279544928980417]]]}, "properties": {"reach": "A", "layer": "erosion", "source": "stereo DSM minus pre-event DEM, floor-masked"}}, {"type": "Feature", "geometry": {"type": "Polygon", "coordinates": [[[85.37445061104336, 28.26586970810489], [85.37445280251382, 28.26572533530693], [85.37437126963492, 28.265724365160033], [85.37437017384683, 28.265796551556498], [85.37428864091707, 28.265795581358077], [85.37429083259904, 28.265651208570176], [85.37420929978315, 28.265650238328977], [85.37421039567295, 28.265578051936732], [85.374128862916, 28.265577081649834], [85.37412995885667, 28.265504895259713], [85.37404842615865, 28.265503924927113], [85.37404952215017, 28.265431738539114], [85.37388645687608, 28.2654297977339], [85.37388536077476, 28.265501984116067], [85.37380382808888, 28.26550101363762], [85.37380492424509, 28.26542882725837], [85.37372339161816, 28.26542785673422], [85.37372668022725, 28.26521129760042], [85.37364514776905, 28.265210327036417], [85.37364624401889, 28.26513814065979], [85.37348317922444, 28.26513619939178], [85.37348427558001, 28.26506401302019], [85.37356580792033, 28.265064983675586], [85.37356690421696, 28.264992797300277], [85.3736484365064, 28.264993767904137], [85.37364734026467, 28.265065954282363], [85.37372887261307, 28.26506692484053], [85.37372777642217, 28.265139111220876], [85.37405390607582, 28.265142992979072], [85.37405281010045, 28.26521517937029], [85.37413434257888, 28.26521614969122], [85.3741332466544, 28.26528833608455], [85.37421477919176, 28.26528930635978], [85.37421258744044, 28.265433679149865], [85.37429412009165, 28.265434649382318], [85.37429302426482, 28.26550683577908], [85.37437455697497, 28.26550780596583], [85.374373461199, 28.2655799923647], [85.37453652674124, 28.2655819325982], [85.37453433539675, 28.2657263054052], [85.37461586828373, 28.26572727545486], [85.37461477266032, 28.26579946186008], [85.37469630560625, 28.265800431864044], [85.3746952100337, 28.265872618271366], [85.37445061104336, 28.26586970810489]]]}, "properties": {"reach": "A", "layer": "erosion", "source": "stereo DSM minus pre-event DEM, floor-masked"}}, {"type": "Feature", "geometry": {"type": "Polygon", "coordinates": [[[85.3735734819118, 28.26455967903158], [85.37357457818011, 28.264487492650655], [85.373493046279, 28.264486522018615], [85.37349414259815, 28.264414335639806], [85.37341261075598, 28.264413364962063], [85.37342138160275, 28.263835873926087], [85.37350291300578, 28.263836844580485], [85.37350729811247, 28.263548099031574], [85.37358882929996, 28.263549069625686], [85.37359211792281, 28.26333251044683], [85.3735105869, 28.26333153986147], [85.3735127794048, 28.26318716707739], [85.37367584123488, 28.263189108187817], [85.37367364894968, 28.263333480983565], [85.37375517998058, 28.263334451471703], [85.37375189168708, 28.263551010668074], [85.37383342288672, 28.26355198111635], [85.37383561497664, 28.263407608313734], [85.37399867716846, 28.26340954905279], [85.37399648529811, 28.263553921867075], [85.3739149540904, 28.263552951516015], [85.37391276209408, 28.26369732432125], [85.37399429341158, 28.263698294678143], [85.37398990958998, 28.263987040290665], [85.37407144113111, 28.263988010610614], [85.37407253703769, 28.26391582420577], [85.37415406852797, 28.26391679447419], [85.37415187682056, 28.264061167288915], [85.37423340842469, 28.264062137514557], [85.37423231261981, 28.264134323923635], [85.37439537594997, 28.264136264234917], [85.37439756733609, 28.263991891404295], [85.37447909889745, 28.263992861481185], [85.3744769076211, 28.264137234317637], [85.37455843929631, 28.264138204351752], [85.37455734370697, 28.264210390771694], [85.3746388754411, 28.264211360760108], [85.37463668436008, 28.264355733603416], [85.37455515251617, 28.26435476360917], [85.37455405691469, 28.264426950026703], [85.3743094612425, 28.264424039743535], [85.37431055700867, 28.264351853334748], [85.37422902518092, 28.26435088314605], [85.37423012099794, 28.26427869673938], [85.37414858922912, 28.264277726504986], [85.37414749335723, 28.264349912908735], [85.3739028979104, 28.26434700190513], [85.37390399394698, 28.26427481551013], [85.37382246219437, 28.26427384508129], [85.37382136610289, 28.264346031473366], [85.37373983429941, 28.264345060992987], [85.37373764199451, 28.264489433768915], [85.37381917390778, 28.264490404255127], [85.37381807780415, 28.2645625906448], [85.3735734819118, 28.26455967903158]], [[85.3735767707046, 28.26434311988641], [85.37365830249998, 28.264344090464004], [85.37365939870126, 28.26427190407776], [85.37357786696077, 28.264270933503077], [85.3735767707046, 28.26434311988641]]]}, "properties": {"reach": "A", "layer": "erosion", "source": "stereo DSM minus pre-event DEM, floor-masked"}}, {"type": "Feature", "geometry": {"type": "Polygon", "coordinates": [[[85.36858887911512, 28.2598794893384], [85.36858997852723, 28.259807303087342], [85.36850845039028, 28.25980632962867], [85.36850954985321, 28.259734143379745], [85.36834649370124, 28.259732196322442], [85.36834539412854, 28.259804382565513], [85.36810080976637, 28.259801461606255], [85.36810190950372, 28.25972927537196], [85.368020381446, 28.259728301624598], [85.36802148123418, 28.25965611539244], [85.36793995323539, 28.2596551415994], [85.36794105307439, 28.259582955369364], [85.36785952513455, 28.25958198153065], [85.36786062502436, 28.25950979530274], [85.36777909714347, 28.25950882141835], [85.36778019708412, 28.25943663519258], [85.36761714144427, 28.259434687283854], [85.3676182414906, 28.259362501063126], [85.36745518597677, 28.259360552965852], [85.3674562861288, 28.259288366750184], [85.36729323074097, 28.25928641846436], [85.36729433099872, 28.259214232253743], [85.36721280336577, 28.259213258040862], [85.36721390367433, 28.259141071832374], [85.36705084853038, 28.259139123266664], [85.36705194894465, 28.25906693706323], [85.36697042143365, 28.2590659627104], [85.36697152189873, 28.258993776509097], [85.36688999444668, 28.258992802110594], [85.36689109496258, 28.258920615911425], [85.36680956756946, 28.258919641467248], [85.36681066813617, 28.258847455270203], [85.36721830486798, 28.258852326990397], [85.36721720457565, 28.258924513202093], [85.36729873198908, 28.25892548740326], [85.36729983222652, 28.258853301188633], [85.36754441432652, 28.258856223491737], [85.36754551439526, 28.258784037267517], [85.3674639870794, 28.25878306321801], [85.36746508719897, 28.25871087699592], [85.36754661445993, 28.258711851042495], [85.36754771452055, 28.25863966481668], [85.36738466011244, 28.258637716680784], [85.36738576027875, 28.258565530460018], [85.36714117886166, 28.258562607900462], [85.36714227918856, 28.258490421687686], [85.36706075211254, 28.258489447406898], [85.36706185249024, 28.258417261196247], [85.36665421744543, 28.258412389077947], [85.36665531809346, 28.25834020288115], [85.36624768342463, 28.25833532956251], [85.3662454815757, 28.25847970192601], [85.3663270086111, 28.2584806766928], [85.36632590773543, 28.258552862876268], [85.36616285355893, 28.258550913288225], [85.36616395454438, 28.258478727110617], [85.36600090049389, 28.25847677733404], [85.36600310267208, 28.25833240498814], [85.36608462958553, 28.25833337989486], [85.36608573061365, 28.258261193717768], [85.36567809636144, 28.258256318712803], [85.36568029895426, 28.258111946385544], [85.36551724550135, 28.258109996055087], [85.36551834690141, 28.25803780989612], [85.36543682023593, 28.258036834660928], [85.36543902313363, 28.257892462346447], [85.36535749658196, 28.25789148706852], [85.36535969957316, 28.257747114756697], [85.3652781731353, 28.257746139436037], [85.36527927467968, 28.257673953281852], [85.36519774830077, 28.257672977915526], [85.3652021546571, 28.2573842333025], [85.36536520697996, 28.257386183963085], [85.36536190254807, 28.25760274244166], [85.36544342888023, 28.257603717707852], [85.36544012457638, 28.257820276188], [85.36552165107723, 28.257821251414395], [85.36551944829742, 28.257965623736343], [85.36576402815363, 28.257968549141534], [85.36576182568682, 28.258112921477874], [85.36584335242344, 28.258113896521596], [85.36584225123883, 28.258186082691495], [85.36600530483402, 28.25818803263902], [85.36600640590888, 28.25811584646326], [85.36616945941057, 28.25811779621052], [85.36617386323039, 28.257829051476005], [85.36625538976784, 28.257830026265008], [85.36625649065775, 28.257757840076444], [85.3666641231315, 28.257762713277845], [85.36666302251597, 28.257834899481065], [85.36674454907778, 28.25783587397848], [85.36674344851306, 28.25790806018383], [85.36682497513381, 28.257909034635578], [85.36682387461991, 28.25798122084305], [85.36706845467117, 28.257984143915486], [85.36706735431784, 28.258056330130955], [85.36714888106461, 28.258057304394168], [85.36714668045549, 28.258201676828545], [85.36722820731607, 28.258202651049018], [85.3672271070603, 28.258274837267937], [85.36730863397982, 28.258275811442736], [85.36730753377486, 28.258347997663787], [85.36738906075333, 28.25834897179291], [85.3673879605992, 28.25842115801608], [85.36779559582676, 28.25842602794738], [85.36779449594296, 28.258498214184396], [85.36812060441761, 28.25850210926635], [85.36811950474927, 28.25857429551427], [85.36820103193297, 28.258575269166183], [85.36819883269385, 28.258719641665486], [85.36803577811102, 28.258717694301343], [85.36803687784236, 28.258645508057953], [85.36779229616317, 28.258642586656016], [85.3677911962672, 28.258714772890624], [85.36770966899407, 28.258713798989845], [85.36770856903914, 28.258785985220722], [85.36762704171517, 28.258785011268422], [85.3676259417013, 28.25885719749557], [85.36778899646306, 28.258859145357434], [85.36778789655492, 28.258931331589633], [85.36819553380475, 28.258936200408414], [85.36819443416694, 28.25900838665445], [85.36827596168396, 28.259009360275336], [85.36827486209697, 28.2590815465235], [85.36851944483703, 28.25908446710332], [85.36851834541064, 28.25915665335946], [85.36859987305365, 28.25915762679179], [85.36859877367806, 28.259229813050066], [85.36868030138001, 28.259230786436717], [85.36867920205525, 28.25930297269712], [85.36892378535012, 28.259305892574254], [85.36892158701771, 28.259450265110196], [85.36900311490054, 28.25945123831122], [85.36900091666165, 28.25959561084981], [85.36916397265902, 28.259597557117768], [85.36916177462344, 28.259741929664848], [85.36875413411161, 28.259737063601175], [85.36875303481332, 28.259809249858883], [85.36867150666825, 28.259808276497413], [85.36867040731101, 28.259880462751397], [85.36858887911512, 28.2598794893384]]]}, "properties": {"reach": "A", "layer": "erosion", "source": "stereo DSM minus pre-event DEM, floor-masked"}}, {"type": "Feature", "geometry": {"type": "Polygon", "coordinates": [[[85.36763584167986, 28.258207521422378], [85.36763694165718, 28.258135335188015], [85.36747388800923, 28.258133387190327], [85.36747498809224, 28.258061200961023], [85.36739346132924, 28.2580602268922], [85.36739566159282, 28.25791585443704], [85.36731413494364, 28.25791488032548], [85.36731523512422, 28.257842694099622], [85.36723370853399, 28.257841719942398], [85.36723480876537, 28.257769533718673], [85.36715328223406, 28.257768559515778], [85.36715548279443, 28.25762418707177], [85.36707395637693, 28.257623212826132], [85.36707835766842, 28.257334467940215], [85.36724141006847, 28.25733641635944], [85.36724030986144, 28.257408602587983], [85.36732183612243, 28.257409576727635], [85.36731963580594, 28.257553949188168], [85.36740116218074, 28.25755492328508], [85.36740006207128, 28.257627109517074], [85.36748158850503, 28.257628083568317], [85.36748048844638, 28.257700269802438], [85.36756201493905, 28.257701243808008], [85.36756091493123, 28.25777343004426], [85.36764244148284, 28.25777440400416], [85.36763914159962, 28.257990962716878], [85.36772066831993, 28.257991936636966], [85.36771956840562, 28.258064122875865], [85.36780109518486, 28.258065096750283], [85.3677988954538, 28.258209469231534], [85.36763584167986, 28.258207521422378]]]}, "properties": {"reach": "A", "layer": "erosion", "source": "stereo DSM minus pre-event DEM, floor-masked"}}, {"type": "Feature", "geometry": {"type": "Polygon", "coordinates": [[[85.36569791911148, 28.25695696765191], [85.36571113354647, 28.256090733466905], [85.36562960835447, 28.25608975840808], [85.36563731688865, 28.255584455100678], [85.36555579208482, 28.255583480013787], [85.36555799459632, 28.255439107638882], [85.36547646990628, 28.255438132509266], [85.3654775712108, 28.255365946323543], [85.3653960465797, 28.25536497114826], [85.36540155331566, 28.255004040222286], [85.36548307767242, 28.255005015382903], [85.36548748276854, 28.254716270615955], [85.36540595863126, 28.25471529546707], [85.36541366777703, 28.254209992114543], [85.36533214402789, 28.254209016937594], [85.36533765071295, 28.253848085962105], [85.3652561272422, 28.253847110751227], [85.36526053273653, 28.253558365968125], [85.36534205598781, 28.253559341167275], [85.36533875203776, 28.253775899764594], [85.36542027545772, 28.253776874923958], [85.36541697163567, 28.25399343352286], [85.36549849522427, 28.253994408642427], [85.36549409029075, 28.254283153441463], [85.36557561410291, 28.254284128524166], [85.36557341172148, 28.254428500924732], [85.36565493564743, 28.254429475964717], [85.3656527333595, 28.254573848367937], [85.36573425739924, 28.254574823365186], [85.36572434739612, 28.25522449916638], [85.36580587193373, 28.255225474141426], [85.36580146760171, 28.255514218932827], [85.36588299236287, 28.25551519387101], [85.3658807902822, 28.25565956626776], [85.36596231515718, 28.25566054116321], [85.36595460813092, 28.256165844547095], [85.36603613339406, 28.256166819414467], [85.36603393145973, 28.256311191808518], [85.36611545683667, 28.256312166633155], [85.36611435591828, 28.256384352831898], [85.36603283048646, 28.256383378004323], [85.36603062852774, 28.256527750393552], [85.3661121540693, 28.25652872522699], [85.36611325499582, 28.256456539029845], [85.36619478048657, 28.256457513811753], [85.36619147785945, 28.25667407240957], [85.36627300351888, 28.256675047151678], [85.36627190268992, 28.256747233352282], [85.36635342840829, 28.256748208048723], [85.36635122684791, 28.25689258045338], [85.36618817519575, 28.25689063100017], [85.36618927608771, 28.256818444804107], [85.36610775032258, 28.256817470007544], [85.36610885126535, 28.256745283813608], [85.36602732555919, 28.256744308971378], [85.36602622456154, 28.25681649516238], [85.36586317305162, 28.256814545326264], [85.36586207194016, 28.2568867315106], [85.36578054613643, 28.256885756516713], [85.36577944496604, 28.25695794269732], [85.36569791911148, 28.25695696765191]]]}, "properties": {"reach": "A", "layer": "erosion", "source": "stereo DSM minus pre-event DEM, floor-masked"}}, {"type": "Feature", "geometry": {"type": "Polygon", "coordinates": [[[85.36676765999847, 28.256319963480852], [85.36676986094511, 28.256175591034054], [85.3666883356454, 28.25617461660404], [85.36668723511924, 28.2562468028249], [85.36660570976873, 28.256245828343364], [85.36660681034977, 28.256173642125425], [85.36652528505819, 28.256172667598214], [85.36652638569002, 28.256100481382408], [85.36644486045738, 28.256099506809534], [85.36644596114003, 28.25602732059586], [85.36628291079668, 28.256025371310187], [85.36628731392561, 28.255736626470885], [85.36645036383, 28.25573857573311], [85.3664492631636, 28.25581076195], [85.36653078817676, 28.255811736511145], [85.36653298939574, 28.2556673640707], [85.36645146449233, 28.255666389515415], [85.3664525651506, 28.25559420329692], [85.36653408999915, 28.25559517784928], [85.36653519059847, 28.25552299162705], [85.3664536658048, 28.255522017077624], [85.36645476645495, 28.255449830857525], [85.36637324172021, 28.255448856262433], [85.36637544311805, 28.255304483825693], [85.36645696774305, 28.25530545841492], [85.36646577273294, 28.25472796861242], [85.36638424854688, 28.25472699404664], [85.36638644986346, 28.254582621593855], [85.3663049257912, 28.254581646985336], [85.36630712720127, 28.25443727453521], [85.36622560324281, 28.25443629988397], [85.36622780474634, 28.25429192743649], [85.3661462809017, 28.25429095274252], [85.36614848249873, 28.25414658029769], [85.36606695876786, 28.254145605560996], [85.36607026129752, 28.253929046896534], [85.36598873773532, 28.25392807212004], [85.36599093951116, 28.25378369967892], [85.36590941606276, 28.253782724859697], [85.36591161793208, 28.253638352421227], [85.36583009459747, 28.25363737755928], [85.36583119558091, 28.253565191341774], [85.36574967230523, 28.253564216434164], [85.36575187436964, 28.25341984400261], [85.36567035120775, 28.25341886905228], [85.36567695763257, 28.25298575175597], [85.36575848046526, 28.252986726688704], [85.36576178345823, 28.252770168020927], [85.36568026079011, 28.25276919309698], [85.36568576597139, 28.252408261982627], [85.36576728836519, 28.25240923689191], [85.3657716922176, 28.252120491974264], [85.36585321439603, 28.25212146682324], [85.36585431529411, 28.25204928058888], [85.36593583742174, 28.252050255386333], [85.36593363573122, 28.252194627860096], [85.36609668021812, 28.252196577320966], [85.36609888168918, 28.25205220483548], [85.366180403829, 28.25205317948717], [85.36617930315036, 28.252125365733246], [85.36642386975878, 28.25212828940559], [85.36642056819223, 28.252344848165386], [85.36633904582077, 28.25234387364774], [85.3663379452356, 28.252416059896458], [85.36625642281335, 28.252415085327286], [85.36624981888784, 28.25284820278523], [85.36633134163925, 28.252849177371992], [85.36633024102565, 28.2529213636151], [85.36657480946889, 28.25292428709264], [85.36657150809744, 28.253140845843543], [85.36648998511437, 28.253139871390825], [85.36648448247307, 28.253500802611647], [85.36656600573046, 28.253501777079016], [85.36656490524487, 28.2535739633237], [85.366809475206, 28.253576886443053], [85.36681057552698, 28.253504700189577], [85.36689209880062, 28.253505674462584], [85.36689099853449, 28.253577860718995], [85.36697252186704, 28.253578834946342], [85.36697032143235, 28.253723207462617], [85.3670518448787, 28.253724181647225], [85.36705074471013, 28.253796367907093], [85.3669692212089, 28.253795393719546], [85.3669681209814, 28.253867579975672], [85.36688659742939, 28.253866605736608], [85.36688549714295, 28.253938791989007], [85.36696702074984, 28.253939766231003], [85.3669659205142, 28.254011952485527], [85.3671289678499, 28.254013900829612], [85.36712566744784, 28.25423045960595], [85.36704414361337, 28.254229485449414], [85.36704524380632, 28.254157299194368], [85.36696372003075, 28.25415632499217], [85.36696261978295, 28.254228511244296], [85.3668810959566, 28.254227536990573], [85.36687999564985, 28.254299723238965], [85.3667984717727, 28.254298748933724], [85.3667962710373, 28.254443121422234], [85.3668777950242, 28.254444095733334], [85.36687889533906, 28.254371909486544], [85.36704194321528, 28.254373857957106], [85.36704304341636, 28.254301671703665], [85.3671245673057, 28.254302645863127], [85.36712236700923, 28.254447018375075], [85.36720389101238, 28.25444799249181], [85.36720169080938, 28.254592365006403], [85.36712016669651, 28.254591390883814], [85.36711796636757, 28.25473576338934], [85.36719949059018, 28.254736737517796], [85.36719619023089, 28.25495329627886], [85.36711466584367, 28.254952322141616], [85.36711356566093, 28.25502450839078], [85.367195090103, 28.255025482530947], [85.36718958940267, 28.255386413779334], [85.36710806468625, 28.255385439624522], [85.36710696447912, 28.25545762586886], [85.36702543971188, 28.255456651662524], [85.36702433944582, 28.255528837903128], [85.36694281462779, 28.25552786364527], [85.36693071082956, 28.25632191220682], [85.36676765999847, 28.256319963480852]], [[85.36669824019802, 28.25552494058012], [85.3668612898138, 28.255526889338814], [85.36686349056131, 28.255382516868515], [85.36678196586114, 28.255381542519316], [85.36678416670216, 28.255237170051668], [85.36662111753346, 28.255235221219227], [85.36662001700523, 28.255307407447596], [85.36670154164243, 28.255308381891044], [85.36669824019802, 28.25552494058012]], [[85.36694831619178, 28.255166932448844], [85.36702984073547, 28.255167906692062], [85.36703094098122, 28.255095720447436], [85.36694941649239, 28.255094746207156], [85.36694831619178, 28.255166932448844]], [[85.36678636752691, 28.25509279758081], [85.36686789200763, 28.25509377191828], [85.36686899235904, 28.255021585678712], [85.36678746793321, 28.25502061134418], [85.36678636752691, 28.25509279758081]], [[85.36695161708144, 28.254950373721368], [85.36703314146052, 28.254951347955792], [85.36703424169409, 28.254879161708764], [85.36711576602237, 28.254880135891668], [85.36711796636757, 28.25473576338934], [85.36687339372412, 28.254732840712443], [85.36687449405522, 28.254660654468864], [85.3667114457563, 28.254658705780493], [85.36670924487055, 28.254803078255115], [85.36695381765423, 28.254806001232367], [85.36695161708144, 28.254950373721368]], [[85.36695711848296, 28.254589442492854], [85.36703864258772, 28.254590416712627], [85.36703974280097, 28.254518230461592], [85.36695821875108, 28.254517256244743], [85.36695711848296, 28.254589442492854]], [[85.36663212259218, 28.254513358891447], [85.36679517066351, 28.254515307665283], [85.3667962710373, 28.254443121422234], [85.36671474705447, 28.25444214706254], [85.36671584747907, 28.254369960821613], [85.36663432355518, 28.254368986416257], [85.36663212259218, 28.254513358891447]], [[85.36655279963534, 28.25436801196232], [85.36663432355518, 28.254368986416257], [85.36663542403058, 28.25429680017747], [85.3665539001656, 28.25429582572646], [85.36655279963534, 28.25436801196232]], [[85.36632253661662, 28.253426667294438], [85.366404059811, 28.253427641856057], [85.36640516039819, 28.25335545561563], [85.36632363725866, 28.25335448105694], [85.36632253661662, 28.253426667294438]], [[85.36608237026, 28.25313499839842], [85.36616389322275, 28.253135973094075], [85.36616499395828, 28.253063786859233], [85.36608347105039, 28.253062812166505], [85.36608237026, 28.25313499839842]], [[85.36585101258767, 28.252265839289525], [85.36593253487987, 28.25226681409577], [85.36593363573122, 28.252194627860096], [85.36585211349387, 28.252193653056786], [85.36585101258767, 28.252265839289525]]]}, "properties": {"reach": "A", "layer": "erosion", "source": "stereo DSM minus pre-event DEM, floor-masked"}}, {"type": "Feature", "geometry": {"type": "Polygon", "coordinates": [[[85.36520323975232, 28.25196929424845], [85.36520434108115, 28.251897108035955], [85.36512281909984, 28.251896132807087], [85.36512392047946, 28.251823946596723], [85.36504239855707, 28.251822971322206], [85.36504349998748, 28.25175078511397], [85.3648804562646, 28.251748834425037], [85.36488155780069, 28.251676648221867], [85.3648000360002, 28.25167567280746], [85.36480444232329, 28.251386927998496], [85.36488596390433, 28.251387903401174], [85.36488816693175, 28.251243530986013], [85.36480664546042, 28.2512425555892], [85.36480995013564, 28.251025996969247], [85.36472842883296, 28.251025021532648], [85.36472953043808, 28.250952835327325], [85.3648925729378, 28.250954786146064], [85.36488926843937, 28.25117134477723], [85.36497078985991, 28.251172320122517], [85.36497629706268, 28.2508113890519], [85.365057818213, 28.250812364333942], [85.36506112232131, 28.25059580567315], [85.36514264331112, 28.250596780897805], [85.36514374461755, 28.250524594673003], [85.36522526555657, 28.25052556984614], [85.36522416430499, 28.25059775607388], [85.36530568530293, 28.250598731201364], [85.36530128047534, 28.250887476116024], [85.36538280169678, 28.250888451206656], [85.36537068868896, 28.251682499688037], [85.36528916686407, 28.25168152456514], [85.36528476179257, 28.251970269431666], [85.36520323975232, 28.25196929424845]], [[85.36496418108239, 28.25160543738079], [85.36504570283613, 28.251606412695097], [85.36504790566852, 28.251462040273015], [85.36496638402448, 28.251461064964577], [85.36496418108239, 28.25160543738079]]]}, "properties": {"reach": "A", "layer": "erosion", "source": "stereo DSM minus pre-event DEM, floor-masked"}}, {"type": "Feature", "geometry": {"type": "Polygon", "coordinates": [[[85.35816202577944, 28.243220967672112], [85.35816313144598, 28.24314878162199], [85.35808161640483, 28.243147802471015], [85.35808382783536, 28.24300343037426], [85.35800231290798, 28.24300245118061], [85.35800784168701, 28.242641520939404], [85.35792632703787, 28.242640541711914], [85.35793075020695, 28.24235179751629], [85.35784923578123, 28.24235081825202], [85.35785587074137, 28.241917701952186], [85.35793738483811, 28.241918681198783], [85.35793849059567, 28.241846495143058], [85.35785697655378, 28.24184551589941], [85.35786361134244, 28.241412399565878], [85.35794512505535, 28.24141337879186], [85.35794401932229, 28.2414855648524], [85.35802553309412, 28.241486544032753], [85.35802442741179, 28.241558730095438], [85.35826896891626, 28.241561667353956], [85.35825901907207, 28.242211341961518], [85.35834053340854, 28.24221232097707], [85.35833721688482, 28.242428879173985], [85.35841873138988, 28.242429858149805], [85.35841430952044, 28.242718602412907], [85.3584958242489, 28.24271958135194], [85.3584947188262, 28.242791767418648], [85.35833168926368, 28.242789809486137], [85.35833058372721, 28.242861995546154], [85.35824906889725, 28.242861016504108], [85.35825017448855, 28.24278883044703], [85.3581686597175, 28.24278785135935], [85.35816423710844, 28.243076595571065], [85.35824575209884, 28.243077574670522], [85.35824354087947, 28.243221946777457], [85.35816202577944, 28.243220967672112]]]}, "properties": {"reach": "A", "layer": "erosion", "source": "stereo DSM minus pre-event DEM, floor-masked"}}, {"type": "Feature", "geometry": {"type": "Polygon", "coordinates": [[[85.34798184826411, 28.19088010667028], [85.34798517851118, 28.190663547971287], [85.34790370373648, 28.190662564425235], [85.34790481386533, 28.190590378193598], [85.3478233391494, 28.19058939460204], [85.34782444932884, 28.190517208372555], [85.34774297467169, 28.19051622473551], [85.34774630534943, 28.190299666051146], [85.34766483086045, 28.190298682374518], [85.34766594113285, 28.190226496147762], [85.34758446670267, 28.190225512425634], [85.3475877976593, 28.190008953749423], [85.34750632339727, 28.190007969987736], [85.34750854412388, 28.18986359753885], [85.34742706997532, 28.18986261373462], [85.34742818038715, 28.18979042751193], [85.34734670629737, 28.189789443662207], [85.34734781675981, 28.18971725744169], [85.34726634272882, 28.189716273546466], [85.34726745324181, 28.189644087328116], [85.34718597926961, 28.189643103387393], [85.34718820039268, 28.189498730954195], [85.34710672653394, 28.18949774697095], [85.34711116894957, 28.189209002106782], [85.34702969531367, 28.18920801808693], [85.34703191660623, 28.189063645655963], [85.34711339013276, 28.189064629669883], [85.34711227954321, 28.189136815888734], [85.34719375312854, 28.189137799857164], [85.34719153204651, 28.18928217229838], [85.3472730057453, 28.189283156224274], [85.34727189525279, 28.18935534244665], [85.34735336901038, 28.189356326327054], [85.34735225856845, 28.189428512551583], [85.34743373238481, 28.189429496386488], [85.34743262199349, 28.189501682613184], [85.34751409586863, 28.189502666402593], [85.34751298552789, 28.189574852631445], [85.3475944594618, 28.189575836375358], [85.34759334917165, 28.189648022606384], [85.34767482316435, 28.1896490063048], [85.3476726026811, 28.189793378770347], [85.34775407678727, 28.189794362426237], [85.34775185639697, 28.189938734894504], [85.34783333061661, 28.18993971850785], [85.34783111031928, 28.190084090978846], [85.34791258465239, 28.190085074549664], [85.34791147455226, 28.190157260786908], [85.34799294894417, 28.190158244312233], [85.34799183889461, 28.190230430551644], [85.34807331334531, 28.190231414031466], [85.34807109334328, 28.190375786513812], [85.34815256790745, 28.190376769951097], [85.34815145795496, 28.190448956194025], [85.34798850872136, 28.19044698926507], [85.3479873986554, 28.19051917550128], [85.34806887332483, 28.190520158992953], [85.34806665329, 28.19066453146888], [85.3481481280729, 28.190665514918017], [85.34814701810402, 28.190737701157733], [85.34830996779151, 28.190739667916546], [85.3483088579279, 28.19081185416139], [85.34822738302742, 28.190810870803258], [85.34822627310503, 28.19088305704434], [85.34798184826411, 28.19088010667028]]]}, "properties": {"reach": "B", "layer": "erosion", "source": "stereo DSM minus pre-event DEM, floor-masked"}}, {"type": "Feature", "geometry": {"type": "Polygon", "coordinates": [[[85.3459079583196, 28.18796707166112], [85.34591129233954, 28.187750513097097], [85.3458298198588, 28.18774952840969], [85.34583204262759, 28.187605156035595], [85.34575057026032, 28.187604171305672], [85.34575501596734, 28.187315426559728], [85.3456735438229, 28.187314441793212], [85.34567687822407, 28.187097883234234], [85.34575835020449, 28.187098867991853], [85.34575946160867, 28.18702668180096], [85.34567798968293, 28.187025697046302], [85.34568132403483, 28.186809138477702], [85.34576279579655, 28.186810123223452], [85.34577168678358, 28.186232633648178], [85.34569021545924, 28.186231648926153], [85.34569132686883, 28.186159462728604], [85.34560985560329, 28.186158477961094], [85.34561096706344, 28.186086291765708], [85.345448024654, 28.186084322091265], [85.34545024778068, 28.18593994970995], [85.34536877669147, 28.185938964805988], [85.34536988830331, 28.185866778617093], [85.34520694624656, 28.185864808669745], [85.34520805796366, 28.18579262248598], [85.34512658699612, 28.185791637442602], [85.34512769876376, 28.185719451261004], [85.34504622785501, 28.185718466172137], [85.34504733967321, 28.185646279992703], [85.34496586882324, 28.185645294858354], [85.34496698069202, 28.185573108681087], [85.34488550990082, 28.185572123501256], [85.34488662182017, 28.185499937326153], [85.34472368035944, 28.185497966827068], [85.34472590440448, 28.185353594486337], [85.34456296317886, 28.185351623805325], [85.34456407530458, 28.18527943763969], [85.34464554586064, 28.18528042300145], [85.34464665792757, 28.185208236832047], [85.34448371692886, 28.185206266066007], [85.34448482910102, 28.185134079901733], [85.34440335866249, 28.185133094449007], [85.34440558310382, 28.184988722124004], [85.34432411277875, 28.184987736628763], [85.34432522504792, 28.184915550468027], [85.34424375478163, 28.18491456492731], [85.34424597941698, 28.18477019260936], [85.34416450926415, 28.18476920702613], [85.34416784635037, 28.184552648552106], [85.34408637636564, 28.18455166292933], [85.34408860117858, 28.18440729061524], [85.34417007105397, 28.184408276232073], [85.3441711833996, 28.184336090070865], [85.34400824376227, 28.184334118794684], [85.34401046865989, 28.184189746481717], [85.34392899895673, 28.184188760776898], [85.34393344892132, 28.18390001615323], [85.34385197944091, 28.183899030411833], [85.34385420450789, 28.183754658101133], [85.34377273514096, 28.18375367231723], [85.3437749603008, 28.18360930000925], [85.34369349104732, 28.183608314182845], [85.34369460367574, 28.183536128030624], [85.34385754207752, 28.183538099629054], [85.34385976710338, 28.183393727310328], [85.34369682892027, 28.183391755723772], [85.34369794153636, 28.18331956956915], [85.34361647250566, 28.183318583706168], [85.3436175851723, 28.18324639755371], [85.34353611620035, 28.18324541164526], [85.34353834163066, 28.18310103934387], [85.34361981049328, 28.18310202524639], [85.3436209231476, 28.183029839091525], [85.34353945433965, 28.183028853191985], [85.34354056704453, 28.18295666703928], [85.34345909829534, 28.182955681094263], [85.34346021105078, 28.182883494943734], [85.34354167974529, 28.182884480885786], [85.3435439051345, 28.182740108576382], [85.3437883109147, 28.182743066094044], [85.34378497331673, 28.182959624583674], [85.34386644208233, 28.182960610334913], [85.34386421710579, 28.18310498266326], [85.34394568598485, 28.183105968371994], [85.34394012374489, 28.183466899193668], [85.34402159290138, 28.183467884868808], [85.3440171432541, 28.183756629523597], [85.34409861263337, 28.18375761516216], [85.3440963878944, 28.183901987490678], [85.34417785738712, 28.183902973086727], [85.34417563274106, 28.184047345417987], [85.3442571023472, 28.184048330971528], [85.34425265322443, 28.184337075636282], [85.34433412305337, 28.18433806115325], [85.34433189857667, 28.18448243348676], [85.34441336851906, 28.18448341896122], [85.34441114413524, 28.184627791297448], [85.34449261419107, 28.1846287767294], [85.34448927774856, 28.18484533523664], [85.34457074797251, 28.184846320629042], [85.34456963587147, 28.184918506799495], [85.34465110615419, 28.18491949214642], [85.3446488820491, 28.185063864490832], [85.34473035244528, 28.185064849795243], [85.34472812843309, 28.185209222142397], [85.34480959894272, 28.185210207404293], [85.34480848698513, 28.185282393579627], [85.34488995755353, 28.185283378796044], [85.34489218135525, 28.18513900643863], [85.34497365181842, 28.18513999160066], [85.3449703162737, 28.18535655014448], [85.34529619882352, 28.1853604903437], [85.34529397554387, 28.185504862725985], [85.34537544630093, 28.185505847660597], [85.34537322311421, 28.185650220045602], [85.34545469398472, 28.1856512049377], [85.3454524708909, 28.185795577325433], [85.34553394187488, 28.185796562175007], [85.34553283037648, 28.185868748370638], [85.34561430141923, 28.185869733174734], [85.34561207851947, 28.186014105569516], [85.34577502083596, 28.186016075044215], [85.34577390948928, 28.18608826124634], [85.34585538070836, 28.186089245913983], [85.34585204680766, 28.186305804524427], [85.34593351819488, 28.186306789152514], [85.34593018442126, 28.186523347764645], [85.34601165597661, 28.186524332353176], [85.34600943354968, 28.18666870476319], [85.345927961885, 28.186667720168728], [85.3459246280498, 28.186884278768833], [85.34576168440469, 28.186882309416756], [85.34576057300873, 28.186954495609257], [85.34584204488391, 28.186955480312488], [85.34583982218902, 28.187099852701017], [85.34592129417766, 28.18710083736173], [85.34592018287873, 28.187173023557747], [85.34583871083542, 28.187172038894072], [85.34583537674999, 28.18738859746845], [85.34591684895733, 28.18738958214102], [85.3459124036713, 28.18767832690748], [85.34607534853572, 28.18768029613099], [85.3460731260868, 28.187824668521277], [85.34615459863453, 28.18782565306628], [85.34615237627854, 28.187970025459283], [85.34607090362145, 28.18796904090835], [85.34607201485618, 28.18789685471521], [85.34599054225788, 28.187895870118787], [85.34598943096847, 28.187968056308964], [85.3459079583196, 28.18796707166112]], [[85.3448877337354, 28.185427751150257], [85.34496920441725, 28.18542873632415], [85.3449703162737, 28.18535655014448], [85.34488884564651, 28.18535556497355], [85.3448877337354, 28.185427751150257]], [[85.34369794153636, 28.18331956956915], [85.3437794105712, 28.18332055538368], [85.34378052312853, 28.183248369225282], [85.34369905414836, 28.18324738341372], [85.34369794153636, 28.18331956956915]]]}, "properties": {"reach": "B", "layer": "erosion", "source": "stereo DSM minus pre-event DEM, floor-masked"}}, {"type": "Feature", "geometry": {"type": "Polygon", "coordinates": [[[85.34282181963484, 28.182009372079623], [85.34282515904034, 28.18179281366566], [85.34274369120278, 28.181791827332173], [85.34274591756187, 28.18164745505813], [85.34282738529011, 28.181648441385676], [85.34283072463393, 28.181431882959675], [85.34266778950952, 28.181429910273977], [85.34266556306578, 28.181574282546887], [85.34233969242902, 28.181570336570413], [85.34234414617463, 28.181281592068927], [85.342425613609, 28.181282578623822], [85.34242895371102, 28.18106602023037], [85.34251042098553, 28.18106700672791], [85.34252378036753, 28.180200773046277], [85.3424423137489, 28.1801997865844], [85.34244565366583, 28.179983228154867], [85.34252712012048, 28.17998421460782], [85.342538252363, 28.179262353094206], [85.3426197182752, 28.179263339469014], [85.34262973644994, 28.178613664011458], [85.3427112018744, 28.17861465031108], [85.34271342798091, 28.17847027797241], [85.34287635862353, 28.17847225041447], [85.34287524568163, 28.178544436590144], [85.34279378030361, 28.178543450390364], [85.3427893282763, 28.178832195073163], [85.34287079387293, 28.178833181284833], [85.34285855105978, 28.179627229129068], [85.34277708486194, 28.179626242884716], [85.34275816224284, 28.180853407493544], [85.34283962936983, 28.180854393788405], [85.34283406394073, 28.18121532452646], [85.34291553134513, 28.181216310787736], [85.3429032876405, 28.182010358373578], [85.34282181963484, 28.182009372079623]], [[85.34267001593682, 28.18128553799785], [85.34275148338764, 28.18128652435898], [85.34275259654046, 28.18121433821675], [85.34267112914428, 28.181213351858595], [85.34267001593682, 28.18128553799785]], [[85.34259300151395, 28.180995807038308], [85.34267446874203, 28.18099679343599], [85.34267558193305, 28.180924607293527], [85.34259411475963, 28.180923620898813], [85.34259300151395, 28.180995807038308]], [[85.3426063601907, 28.180129573311394], [85.34268782676288, 28.18013055967342], [85.34268893990456, 28.180058373521327], [85.34260747338703, 28.180057387162275], [85.3426063601907, 28.180129573311394]], [[85.34252600687361, 28.180056400754783], [85.34260747338703, 28.180057387162275], [85.34260858657925, 28.179985201012347], [85.34252712012048, 28.17998421460782], [85.34252600687361, 28.180056400754783]]]}, "properties": {"reach": "B", "layer": "erosion", "source": "stereo DSM minus pre-event DEM, floor-masked"}}, {"type": "Feature", "geometry": {"type": "Polygon", "coordinates": [[[85.34065412048818, 28.16407759627447], [85.34065523424627, 28.164005410027634], [85.34049232570307, 28.16400343586949], [85.34049343956627, 28.163931249627794], [85.34041198535544, 28.16393026247908], [85.34041532708419, 28.16371370375813], [85.34033387304132, 28.16371271656994], [85.34033498699726, 28.16364053033099], [85.34082371098853, 28.163646452716208], [85.34082259736024, 28.163718638973002], [85.3409040514278, 28.163719625870755], [85.34090516500147, 28.163647439610987], [85.34106807303972, 28.16364941325533], [85.34106695957526, 28.163721599521047], [85.34114841365516, 28.163722586273586], [85.3411473002412, 28.163794772541475], [85.34106584610669, 28.163793785785963], [85.3410636191572, 28.16393815831339], [85.34114507340092, 28.163939145074846], [85.34114395997462, 28.16401133134033], [85.34122541427708, 28.164012318056358], [85.34122430090126, 28.164084504324013], [85.34065412048818, 28.16407759627447]], [[85.34057712138602, 28.163787864236365], [85.34065857549584, 28.163788851282312], [85.34065968923747, 28.16371666503227], [85.34057823518225, 28.163715677989295], [85.34057712138602, 28.163787864236365]]]}, "properties": {"reach": "B", "layer": "erosion", "source": "stereo DSM minus pre-event DEM, floor-masked"}}, {"type": "Feature", "geometry": {"type": "Polygon", "coordinates": [[[85.33944679517951, 28.163124364632907], [85.33944902422283, 28.162979992206857], [85.33936757077548, 28.162979004467562], [85.33936868534556, 28.162906818256314], [85.33928723195693, 28.16290583047159], [85.33928834657749, 28.162833644262516], [85.33920689324759, 28.162832656432368], [85.33920800791864, 28.16276047022547], [85.3390451013804, 28.162758494425916], [85.33904621615656, 28.162686308224163], [85.338883309744, 28.16268433223695], [85.33888442462526, 28.162612146040356], [85.3387215183384, 28.162610169865488], [85.33872263332475, 28.162537983674046], [85.33855972716358, 28.162536007311516], [85.33856084225503, 28.16246382112523], [85.33847938923525, 28.162462832874336], [85.33848050437716, 28.162390646690227], [85.3383990514161, 28.16238965839391], [85.33840016660851, 28.162317472211978], [85.33848161951497, 28.16231846050532], [85.33848273464865, 28.162246274319603], [85.33856418750463, 28.16224726256156], [85.33856530257958, 28.162175076372073], [85.33864675538508, 28.162176064562647], [85.33864898541343, 28.1620316921753], [85.33881189081835, 28.16203366839934], [85.33881077591545, 28.162105854599368], [85.33897368144606, 28.162107830635748], [85.33897145184632, 28.162252203045306], [85.33905290472701, 28.162253190996843], [85.33905067522001, 28.162397563409158], [85.33913212821403, 28.16239855131825], [85.33913101350896, 28.16247073752618], [85.33921246656172, 28.162471725389853], [85.33921581050078, 28.16225516675472], [85.33929726339382, 28.162256154561057], [85.3392961488062, 28.162328340776547], [85.33937760175797, 28.162329328537457], [85.339378716291, 28.16225714231898], [85.3395416220977, 28.162259117689633], [85.33954050767389, 28.16233130391405], [85.33962196063803, 28.162332291529747], [85.33962084626471, 28.162404477756347], [85.33970229928757, 28.162405465326614], [85.33970118496474, 28.162477651555378], [85.33978263804632, 28.16247863908022], [85.33978152377398, 28.162550825311172], [85.33986297691429, 28.16255181279058], [85.33985852000218, 28.162840557718244], [85.3401028801031, 28.162843519901774], [85.3401017660286, 28.162915706140616], [85.34026467289235, 28.162917680693564], [85.34026355892296, 28.16298986693755], [85.3403450124156, 28.162990854144397], [85.3403438984967, 28.16306304039057], [85.34026244494943, 28.163062053180745], [85.3402613309718, 28.16313423942313], [85.34001697019089, 28.163131277494312], [85.34001808433234, 28.163059091260855], [85.33985517727487, 28.163057116405568], [85.33985629152143, 28.162984930177263], [85.33961193112991, 28.16298196754023], [85.33961081671953, 28.16305415375961], [85.33969227023385, 28.163055141356672], [85.33969115587396, 28.163127327578223], [85.33944679517951, 28.163124364632907]], [[85.34001919846969, 28.162986905026592], [85.34010065194998, 28.16298789237865], [85.3401017660286, 28.162915706140616], [85.3400203126029, 28.16291471879153], [85.34001919846969, 28.162986905026592]], [[85.33961638873026, 28.162693222654706], [85.33969784197154, 28.162694210236875], [85.33969895630672, 28.162622024010513], [85.33961750312005, 28.162621036431315], [85.33961638873026, 28.162693222654706]]]}, "properties": {"reach": "B", "layer": "erosion", "source": "stereo DSM minus pre-event DEM, floor-masked"}}, {"type": "Feature", "geometry": {"type": "Polygon", "coordinates": [[[85.33628462569952, 28.162147387384458], [85.33628685889498, 28.16200301516997], [85.33620540631829, 28.16200202558169], [85.33620652296443, 28.16192983947622], [85.33612507044646, 28.16192884984251], [85.33612618714308, 28.161856663739233], [85.33604473468384, 28.161855674060106], [85.33604585143095, 28.161783487958996], [85.33588294663404, 28.16178150846151], [85.33588629717822, 28.161564950171293], [85.3359677494108, 28.16156593993529], [85.33597333329553, 28.16120500942063], [85.33589188133597, 28.161204019671548], [85.33589299815515, 28.16113183356919], [85.33581154625432, 28.161130843774696], [85.33581266312396, 28.161058657674523], [85.33589411497017, 28.161059647466033], [85.33589746539053, 28.160843089151758], [85.33573456202984, 28.160841109538225], [85.33573902963602, 28.160552365131828], [85.33549467528114, 28.160549395384336], [85.33549579233616, 28.160477209289684], [85.3354143409474, 28.160476219280042], [85.33541657515427, 28.16033184709429], [85.33533512387883, 28.16033085704222], [85.33533847532199, 28.16011429876654], [85.33541992643362, 28.16011528880966], [85.33541769225153, 28.160259661000218], [85.33582494841764, 28.160264610519704], [85.33582383159339, 28.1603367966287], [85.3359052828936, 28.160337786390382], [85.33590416611983, 28.160409972501554], [85.33598561747877, 28.160410962217824], [85.33598450075547, 28.16048314833118], [85.33614740359492, 28.160485127624487], [85.33614852020902, 28.160412941505168], [85.33606706884183, 28.160411951885692], [85.33607041882317, 28.160195393531872], [85.3359889676239, 28.16019440387295], [85.33599120103335, 28.160050031639027], [85.33607265212342, 28.16005102129198], [85.33607153547536, 28.160123207412322], [85.33615298662414, 28.16012419701987], [85.33614963681899, 28.16034075538505], [85.33631253945654, 28.160342734472827], [85.33631142295577, 28.160414920598914], [85.33639287433535, 28.16041591007319], [85.33639064143063, 28.160560282328916], [85.33655354442054, 28.160562261144197], [85.33655800977665, 28.16027351660567], [85.33663946105939, 28.160274505928786], [85.33663722849879, 28.16041887820561], [85.33680013129505, 28.16042085671857], [85.33679901511776, 28.16049304286175], [85.33688046657667, 28.160494032048614], [85.33687935044986, 28.16056621819397], [85.33679789893634, 28.160565229004117], [85.33679566656114, 28.16070960128647], [85.33671421494255, 28.160708612042264], [85.33671309869415, 28.160780798179253], [85.3364687436993, 28.160777830147293], [85.33646762728299, 28.16085001627453], [85.33638617557169, 28.16084902683076], [85.33638170964673, 28.16113777131978], [85.33646316157645, 28.161138760775476], [85.33646539443797, 28.160994388526603], [85.3365468462626, 28.160995377927943], [85.33654461351028, 28.16113975018277], [85.33662606544824, 28.161140739541672], [85.33662271645264, 28.161357297926852], [85.33670416855853, 28.16135828724629], [85.33670305227301, 28.16143047337606], [85.33654014795614, 28.161428494682816], [85.33653679874723, 28.161645053049426], [85.3366182510674, 28.161646042429197], [85.33661713471078, 28.161718228552786], [85.3366985870897, 28.161719217887136], [85.33669970339172, 28.161647031760562], [85.33678115572015, 28.16164802104353], [85.33677557444184, 28.16200895168324], [85.33669412184038, 28.16200796238537], [85.3366952381589, 28.161935776262013], [85.33661378561618, 28.161934786918717], [85.33661490198517, 28.161862600797548], [85.33653344950118, 28.16186161140883], [85.33653568233599, 28.16171723917003], [85.33645422996533, 28.161716249738884], [85.33645646289287, 28.16157187750284], [85.33637501063555, 28.161570888029253], [85.33637612714773, 28.161498701913008], [85.33629467494912, 28.161497712394002], [85.33629579151179, 28.161425526279942], [85.33621433937192, 28.16142453671552], [85.33620987287811, 28.161713281155016], [85.3362913252364, 28.161714270731373], [85.33628909207394, 28.16185864295228], [85.33637054454556, 28.161859632486195], [85.33636942801274, 28.161931818598426], [85.3364508805431, 28.161932808086924], [85.33644976406077, 28.16200499420134], [85.33653121664985, 28.16200598364442], [85.336530100218, 28.162078169761006], [85.33644864757431, 28.16207718031495], [85.33644753108372, 28.16214936642776], [85.33628462569952, 28.162147387384458]], [[85.33629802462472, 28.161281154049412], [85.3363794766595, 28.161282143559475], [85.33638059315518, 28.161209957440033], [85.336299141175, 28.161208967932954], [85.33629802462472, 28.161281154049412]], [[85.33621768919895, 28.16120797837747], [85.336299141175, 28.161208967932954], [85.33630137426319, 28.16106459569761], [85.33613847053361, 28.161062616550183], [85.33613735388236, 28.16113480266229], [85.3362188057997, 28.161135792263185], [85.33621768919895, 28.16120797837747]]]}, "properties": {"reach": "B", "layer": "erosion", "source": "stereo DSM minus pre-event DEM, floor-masked"}}, {"type": "Feature", "geometry": {"type": "Polygon", "coordinates": [[[85.304262670377, 28.13662930844362], [85.30426494411014, 28.136484938067227], [85.30418351218039, 28.13648393027346], [85.30418237526138, 28.136556115459022], [85.30410094328128, 28.13655510761387], [85.30410208025482, 28.136482922431348], [85.30402064833346, 28.136481914540884], [85.30402178535732, 28.1364097293606], [85.30377748978205, 28.13640670540825], [85.3037786269653, 28.136334520236282], [85.3036971951698, 28.13633351215851], [85.30369946963273, 28.13618914181825], [85.30361803795051, 28.136188133698205], [85.30362144977695, 28.135971578190915], [85.3037028812956, 28.135972586301836], [85.30370401850816, 28.13590040112809], [85.30386688144898, 28.13590241719881], [85.3038657443455, 28.135974602378635], [85.30394717587674, 28.13597561034451], [85.30394603882357, 28.136047795526572], [85.30402747041354, 28.136048803447142], [85.3040263334107, 28.136120988631447], [85.30418919671233, 28.136123004333626], [85.30419033360612, 28.13605081914325], [85.3043531968155, 28.136052834645962], [85.30435092324184, 28.13619720503807], [85.30451378668614, 28.136199220359554], [85.30451265000208, 28.13627140556048], [85.30459408178505, 28.13627241315174], [85.30459294515131, 28.136344598354903], [85.3045115133138, 28.136343590760607], [85.30450923992466, 28.136487961158444], [85.30434637604411, 28.13648594581265], [85.30434410242003, 28.136630316195117], [85.304262670377, 28.13662930844362]]]}, "properties": {"reach": "B", "layer": "erosion", "source": "stereo DSM minus pre-event DEM, floor-masked"}}, {"type": "Feature", "geometry": {"type": "Polygon", "coordinates": [[[85.30250416876784, 28.13451375684653], [85.30251213430395, 28.134008460820365], [85.3024307043206, 28.13400745206639], [85.30243411822225, 28.133790896623683], [85.30235268840666, 28.133789887830492], [85.30235382641999, 28.13371770268436], [85.30227239666313, 28.133716693845866], [85.30227353472678, 28.133644508701977], [85.302029245645, 28.133641481905574], [85.3020315220868, 28.133497111633638], [85.30195009251034, 28.133496102610906], [85.30195464556154, 28.133207362069562], [85.30187321620737, 28.133206353010667], [85.30187549281676, 28.133061982741268], [85.30179406357584, 28.133060973640106], [85.30179520192874, 28.132988788507244], [85.30187663111515, 28.13298979760536], [85.30187890769929, 28.132845427331148], [85.30196033678087, 28.132846436374834], [85.3019614750121, 28.13277425123347], [85.30204290404336, 28.132775260225777], [85.30204404221588, 28.132703075080578], [85.30220690018199, 28.132705092914076], [85.3022057621185, 28.132777278065358], [85.30236862021047, 28.132779295711586], [85.30236748225184, 28.132851480868162], [85.30253034046967, 28.13285349832711], [85.30252920261586, 28.132925683488956], [85.30277349013771, 28.132928709323952], [85.3027712147446, 28.133073079663497], [85.302852644036, 28.133074088184564], [85.3028503687351, 28.133218458526972], [85.30276893933465, 28.133217449999826], [85.30276666390789, 28.133361820332947], [85.30268523440262, 28.133360811751377], [85.30268750993841, 28.13321644142433], [85.30236179239552, 28.133212406638954], [85.3023629303752, 28.133140221486407], [85.30228150105451, 28.13313921267225], [85.3022803630203, 28.133211397821757], [85.30219893364931, 28.133210388956222], [85.30219438125236, 28.133499129534073], [85.30227581084145, 28.133500138411783], [85.30227467278621, 28.133572323557278], [85.30243753208605, 28.133574341173755], [85.30243867003223, 28.13350215602218], [85.30268295884999, 28.1335051820752], [85.30268182106735, 28.133577367235905], [85.3027632507362, 28.13357837582661], [85.3027621130039, 28.133650560989555], [85.30268068328053, 28.133649552395813], [85.30267613209115, 28.13393829302741], [85.30275756203261, 28.133939301633312], [85.30275642427927, 28.134011486792243], [85.30291928428386, 28.13401350386512], [85.30292042192814, 28.133941318700103], [85.3030832818405, 28.133943335573523], [85.30308214430526, 28.134015520744622], [85.3033264343689, 28.134018545701306], [85.30332188484016, 28.134307286414156], [85.30324045459665, 28.134306278131444], [85.30324159203965, 28.13423409295748], [85.30316016185488, 28.13423308462946], [85.30316129934822, 28.134160899457726], [85.30299843910032, 28.13415888266274], [85.30299502628056, 28.134375438157285], [85.30307645656596, 28.13437644658807], [85.3030753190055, 28.13444863175435], [85.30299388866555, 28.134447623320526], [85.30299275104635, 28.134519808482956], [85.30250416876784, 28.13451375684653]]]}, "properties": {"reach": "B", "layer": "erosion", "source": "stereo DSM minus pre-event DEM, floor-masked"}}, {"type": "Feature", "geometry": {"type": "Polygon", "coordinates": [[[85.30043369111446, 28.131527924652577], [85.30043596949288, 28.131383554455848], [85.30035454158163, 28.131382544554615], [85.30036137694289, 28.130949433963423], [85.30044280452705, 28.13095044384638], [85.30044166536523, 28.13102262894996], [85.3005230930081, 28.131023638787624], [85.30052537121851, 28.130879268573562], [85.30044394368468, 28.130878258741987], [85.30044622198729, 28.130733888530802], [85.30052764941212, 28.130734898356284], [85.30053220574877, 28.130446157912097], [85.30069506017492, 28.13044817739369], [85.30069619913954, 28.130375992274548], [85.30077762630441, 28.130377001939795], [85.30077648739432, 28.130449187061984], [85.30085791461792, 28.130450196681945], [85.30085677575813, 28.13052238180638], [85.30077534848002, 28.130521372183377], [85.3007742095615, 28.130593557303953], [85.30069278223307, 28.13059254762957], [85.30068822629886, 28.1308812880917], [85.30076965384532, 28.130882297778268], [85.30076851490577, 28.13095448289484], [85.30068708730477, 28.13095347320523], [85.30068480930397, 28.131097843429867], [85.30060338159817, 28.13109683368583], [85.3006011034715, 28.13124120390117], [85.30068253128634, 28.131242213651298], [85.30067911422832, 28.131458768977417], [85.30059768624992, 28.131457759218154], [85.30059654716763, 28.131529944322214], [85.30043369111446, 28.131527924652577]], [[85.30052651031743, 28.130807083465324], [85.30060793780098, 28.13080809324552], [85.30060907684114, 28.130735908133428], [85.30052764941212, 28.130734898356284], [85.30052651031743, 28.130807083465324]]]}, "properties": {"reach": "B", "layer": "erosion", "source": "stereo DSM minus pre-event DEM, floor-masked"}}, {"type": "Feature", "geometry": {"type": "Polygon", "coordinates": [[[85.29917530265189, 28.128696542820556], [85.2991775824461, 28.128552172658683], [85.29909615672821, 28.128551162102937], [85.29909729667351, 28.12847897702385], [85.29901587101433, 28.12847796642282], [85.29901815100129, 28.12833359626833], [85.29893672545535, 28.12833258562506], [85.29893786549701, 28.128260400549664], [85.298693589048, 28.128257368339025], [85.29869472924896, 28.128185183271963], [85.2986133038289, 28.128184172441475], [85.29861444408017, 28.12811198737666], [85.29853301871881, 28.12811097650089], [85.2985352993177, 28.12796660637495], [85.29845387406958, 28.127965595456942], [85.29845501441721, 28.127893410395817], [85.29853643961083, 28.12789442131077], [85.29853872018442, 28.127750051180016], [85.29862014527325, 28.12775106204055], [85.29861900504307, 28.127823247109376], [85.2987004301906, 28.127824257924622], [85.2986992900107, 28.1278964429957], [85.29878071521696, 28.127897453765662], [85.29877957508735, 28.127969638838984], [85.29886100035235, 28.127970649563665], [85.29885986027303, 28.12804283463923], [85.29894128559673, 28.128043845318636], [85.29894014556771, 28.128116030396452], [85.29910299633677, 28.12811805161636], [85.29910185641253, 28.128190236699467], [85.29918328185789, 28.128191247239975], [85.29918100210583, 28.12833561740987], [85.2992624276644, 28.128336627908144], [85.29926014800449, 28.128480998080917], [85.29934157367629, 28.128482008536963], [85.29934043389453, 28.128554193625188], [85.2992590081682, 28.128553183166108], [85.299256728483, 28.128697553334067], [85.29917530265189, 28.128696542820556]]]}, "properties": {"reach": "B", "layer": "erosion", "source": "stereo DSM minus pre-event DEM, floor-masked"}}]}