{
"type": "FeatureCollection",
"name": "analysis_extent_utm45n",
"crs": { "type": "name", "properties": { "name": "urn:ogc:def:crs:EPSG::32645" } },
"features": [
{ "type": "Feature", "properties": { "Site_ID": 26, "AgencyID": null, "SiteName": null, "Notes": null, "Area_m2": 1245592736.9692087, "Area_ha": 124559.27369692088, "SHAPE_Length": 3.7642931164174263, "SHAPE_Area": 0.11417474456253017, "EventCode": "FL20260826NPL" }, "geometry": { "type": "MultiPolygon", "coordinates": [ [ [ [ 344424.491387204150669, 3136563.584612904582173 ], [ 346992.329866272979416, 3136514.619727447628975 ], [ 352284.518733204051387, 3136447.325894517824054 ], [ 356320.643001552380156, 3131273.455915153026581 ], [ 356301.36474402807653, 3129126.203066126443446 ], [ 355514.378363054653164, 3129102.711075783707201 ], [ 353135.976977908285335, 3129171.92598643200472 ], [ 350353.536945124156773, 3133123.140097426250577 ], [ 350282.796734521631151, 3133253.6920893387869 ], [ 346232.684431396308355, 3133246.548469728324562 ], [ 343781.200023878074717, 3128850.341571496799588 ], [ 343184.415260971756652, 3127780.674491343554109 ], [ 339570.582919516135007, 3115740.061994646210223 ], [ 339579.030087472987361, 3115433.197310740593821 ], [ 334947.860215881664772, 3109744.680741250980645 ], [ 326196.058378792309668, 3106223.844003193546087 ], [ 323330.792572193662636, 3096007.54817020567134 ], [ 319440.572623939311597, 3089686.056091535836458 ], [ 334135.214721600001212, 3089504.716954253148288 ], [ 334134.503487384994514, 3089446.241228503640741 ], [ 334142.867910870001651, 3089446.129747349303216 ], [ 334054.071855865302496, 3082825.060187969356775 ], [ 317577.858199488022365, 3083029.129280396271497 ], [ 315753.832390319905244, 3081652.917295684106648 ], [ 307393.832025342388079, 3081799.356676303781569 ], [ 307331.882386357756332, 3078125.342678953427821 ], [ 307227.721764441695996, 3078127.123882003128529 ], [ 307157.059227870195173, 3074055.397153271827847 ], [ 271895.034872638643719, 3074731.634838350582868 ], [ 269248.946749392198399, 3076767.702957204543054 ], [ 254249.735298472078284, 3077063.084243195131421 ], [ 250789.880676268570824, 3062829.732343187555671 ], [ 238489.641780913749244, 3063885.094897178467363 ], [ 244562.896455867390614, 3088777.65790239488706 ], [ 247131.231230714009143, 3088681.445795945823193 ], [ 247780.172594974195817, 3088484.791625293903053 ], [ 270062.972073022276163, 3088038.847715192940086 ], [ 273983.935945892939344, 3082800.215047812089324 ], [ 303516.320129315601662, 3082230.332148997113109 ], [ 303529.618726837448776, 3082977.978713298216462 ], [ 305926.581855247844942, 3084848.395065878517926 ], [ 312865.829669371480122, 3084725.460472559556365 ], [ 315843.730509027838707, 3090993.13320121075958 ], [ 315835.069540992437396, 3090999.761164274532348 ], [ 319424.099020533030853, 3096930.670039050746709 ], [ 322945.390006525733043, 3109360.094060701318085 ], [ 322965.953951242147014, 3109352.767587412614375 ], [ 322956.922855196229648, 3109382.6977494279854 ], [ 329900.044169747270644, 3112073.866068630013615 ], [ 335785.201296925079077, 3118864.473377072717994 ], [ 337001.946482861647382, 3121132.259178759064525 ], [ 337183.727432258659974, 3127984.819416490383446 ], [ 337247.36452101264149, 3133301.334475513081998 ], [ 337311.682272258913144, 3133308.513595841825008 ], [ 339487.608869778225198, 3133284.242318935226649 ], [ 339481.629395917465445, 3131259.366636951453984 ], [ 341669.307941024424508, 3131200.612034139223397 ], [ 341684.73930711322464, 3131190.354757403489202 ], [ 342734.612639599130489, 3133248.767474674154073 ], [ 343436.45555926481029, 3134625.243728836998343 ], [ 344424.491387204150669, 3136563.584612904582173 ] ] ] ] } }
]
}
