{
"type": "FeatureCollection",
"name": "detachment_zone_utm45n",
"crs": { "type": "name", "properties": { "name": "urn:ogc:def:crs:EPSG::32645" } },
"features": [
{ "type": "Feature", "properties": { "SiteID": null, "SensorDate": "2026-09-26T00:00:00Z", "SensorID": 57, "ConfidenceID": null, "FieldValidation": 0, "Settlement_Name": null, "Notes": null, "Main_Damage_Site_Class": null, "Grouped_Damage_Classes": null, "StaffID": 219, "EventCode": "FL20260826NPL", "Area_m2": 1956822.9, "Area_ha": 195.68228, "ImageID_Num": null, "Shape_Length": 0.052659399734801236, "Shape_Area": 0.00018004402129255106 }, "geometry": { "type": "MultiPolygon", "coordinates": [ [ [ [ 355726.274892290239222, 3129695.729870631359518 ], [ 355576.488108006829862, 3129691.824492191430181 ], [ 355449.245579033507966, 3129647.541027117520571 ], [ 355333.37911057996098, 3129591.661285855341703 ], [ 355288.962085636041593, 3129534.149203735869378 ], [ 355186.065781353972852, 3129443.981197055894881 ], [ 355074.341860655229539, 3129430.537692286539823 ], [ 354986.512074995727744, 3129437.624755330849439 ], [ 354794.830537754110992, 3129351.881470736581832 ], [ 354721.900966796209104, 3129465.291553196962923 ], [ 354492.864710130437743, 3129489.431984434835613 ], [ 354295.809431015222799, 3129518.427231754176319 ], [ 354107.108064708707388, 3129651.674927201587707 ], [ 353965.629054827033542, 3129831.872952839359641 ], [ 354074.558803286287002, 3129946.061119209975004 ], [ 354175.535724215907976, 3130041.268949216231704 ], [ 354274.833670739550143, 3130154.630006994120777 ], [ 354357.207459781784564, 3130296.843791270628572 ], [ 354395.829669925034977, 3130481.006890556775033 ], [ 354437.791937929170672, 3130632.613969297148287 ], [ 354552.285632708226331, 3130706.929577101953328 ], [ 354708.871890363283455, 3130796.669216331560165 ], [ 354894.899490343523212, 3130854.509505108464509 ], [ 355034.872846839018166, 3130851.210742563474923 ], [ 355183.325499498809222, 3130854.91336887748912 ], [ 355354.570156416506507, 3130816.103018140420318 ], [ 355526.9571156820748, 3130745.466029296629131 ], [ 355690.663326908077579, 3130668.511448526754975 ], [ 355803.281185326166451, 3130584.104893638752401 ], [ 355826.146791029023007, 3130376.276401579380035 ], [ 355838.789547660737298, 3130166.497128868009895 ], [ 355822.845046755042858, 3129825.291300440672785 ], [ 355766.092784161679447, 3129763.235319732688367 ], [ 355726.274892290239222, 3129695.729870631359518 ] ] ] ] } }
]
}
